ZHUHAI-1 01 (CAS-4A)    
1 42761U 17034D   23155.56586843  .00006064  00000+0  31038-3 0  9999
2 42761  43.0131 184.3725 0011061  15.4162 344.7021 15.17230663329719
MAX VALIER SAT          
1 42778U 17036P   23155.54916704  .00020012  00000+0  53123-3 0  9998
2 42778  97.1555 190.6958 0010257 138.9290 221.2729 15.38265877330785
RADFXSAT (FOX-1B)       
1 43017U 17073E   23155.59462957  .00005908  00000+0  41249-3 0  9990
2 43017  97.6326  40.4327 0235512 110.7375 251.9251 14.85898448299310
FOX-1D (AO-92)          
1 43137U 18004AC  23155.18574976  .00030355  00000+0  63999-3 0  9998
2 43137  97.3291 234.2447 0006553 174.8789 185.2528 15.45167066300308
DIWATA-2B               
1 43678U 18084H   23155.59233205  .00001270  00000+0  12666-3 0  9997
2 43678  98.0213 299.3095 0009179 195.6073 164.4864 14.93385787250383
ES'HAIL 2               
1 43700U 18090A   23155.53591846  .00000160  00000+0  00000+0 0  9994
2 43700   0.0018  29.6680 0001868  74.6142   7.1670  1.00269607 16563
FOX-1CLIFF (AO-95)      
1 43770U 18099N   23155.41553045  .00003901  00000+0  32025-3 0  9998
2 43770  97.5730 217.3009 0012381 173.0263 187.1135 14.99716671245696
ITASAT 1                
1 43786U 18099AE  23155.21483007  .00003155  00000+0  26187-3 0  9996
2 43786  97.5777 218.1380 0013408 160.9154 199.2575 14.99412188245700
JY1SAT (JO-97)          
1 43803U 18099AX  23155.11392054  .00005704  00000+0  45411-3 0  9999
2 43803  97.5696 218.0177 0013927 134.4269 225.8097 15.00689090245731
UWE-4                   
1 43880U 18111E   23155.23386169  .00004988  00000+0  38370-3 0  9991
2 43880  97.6322  60.6196 0017129 214.4026 145.6091 15.02033043242422
NEXUS (FO-99)           
1 43937U 19003F   23155.59429968  .00046207  00000+0  77614-3 0  9993
2 43937  97.0857 182.9686 0009600 327.3582  32.7076 15.51593360244091
JAISAT-1                
1 44419U 19038F   23155.47294664  .00020186  00000+0  70094-3 0  9990
2 44419  97.6730 136.7768 0013986 357.3969   2.7195 15.29712441216596
DUCHIFAT-3              
1 44854U 19089C   23155.41200050  .00006077  00000+0  41303-3 0  9993
2 44854  36.9603 167.6254 0009992 217.5870 142.4176 15.06051283190976
CAS-6 (TIANQIN 1)       
1 44881U 19093C   23155.54042712  .00000993  00000+0  12994-3 0  9996
2 44881  97.8617 234.2066 0016063 117.3179 242.9672 14.82508835186925
RS-44 & BREEZE-KM R/B   
1 44909U 19096E   23155.55686755  .00000022  00000+0  47375-4 0  9997
2 44909  82.5220 356.3405 0216776 216.2802 142.3436 12.79720941160544
BY70-2                  
1 45857U 20042B   23155.58694713  .00015262  00000+0  15846-2 0  9997
2 45857  97.9261 235.4458 0009121  59.5882 300.6236 14.90002502157664
SALSAT                  
1 46495U 20068K   23155.44436859  .00003493  00000+0  23307-3 0  9999
2 46495  97.7704 103.3143 0016303 156.6888 203.5082 15.07621204147150
RADFXSAT-2 (AO-109)     
1 47311U 21002C   23155.37682836  .00021867  00000+0  57837-3 0  9996
2 47311  60.6804 107.7631 0014200 169.7126 190.4262 15.38335735132313
UVSQ-SAT                
1 47438U 21006AB  23155.16372341  .00013357  00000+0  55277-3 0  9995
2 47438  97.3852 212.4605 0011546 125.5930 234.6384 15.24005510130663
DIY-1 (ARDUIQUBE)       
1 47963U 21022AH  23155.55024391  .00193239  00000+0  26341-2 0  9995
2 47963  97.4972  63.4983 0004885  58.2469 301.9261 15.56841827120621
XW-3 (CAS-9)            
1 50466U 21131B   23155.58357597  .00000564  00000+0  19764-3 0  9998
2 50466  98.5517 237.1675 0004680 162.6224 197.5124 14.38905864 75548
TEVEL-3                 
1 50988U 22002E   23155.44844542  .00016196  00000+0  65832-3 0  9996
2 50988  97.4341 222.5045 0006174 273.8743  86.1789 15.24614454 76820
TEVEL-8                 
1 50989U 22002F   23155.46664387  .00016765  00000+0  68262-3 0  9998
2 50989  97.4355 222.5802 0006260 272.6072  87.4449 15.24548630 76824
TEVEL-5                 
1 50998U 22002Q   23155.53105206  .00017296  00000+0  68587-3 0  9996
2 50998  97.4333 222.9551 0007462 267.3169  92.7215 15.25420554 76867
TEVEL-6                 
1 50999U 22002R   23155.46397773  .00017042  00000+0  67591-3 0  9994
2 50999  97.4331 222.8834 0007478 267.4309  92.6073 15.25417982 76854
TEVEL-1                 
1 51013U 22002AF  23155.45786592  .00016436  00000+0  66893-3 0  9992
2 51013  97.4335 222.4585 0006153 273.2247  86.8286 15.24568973 76824
TEVEL-7                 
1 51062U 22002CG  23155.53342016  .00016878  00000+0  68681-3 0  9991
2 51062  97.4351 222.6200 0006252 271.7065  88.3456 15.24567320 76835
TEVEL-4                 
1 51063U 22002CH  23155.53907620  .00016734  00000+0  68201-3 0  9999
2 51063  97.4350 222.6103 0006256 271.7139  88.3381 15.24517177 76835
TEVEL-2                 
1 51069U 22002CP  23155.45029129  .00016021  00000+0  65122-3 0  9993
2 51069  97.4337 222.4782 0006156 273.3751  86.6782 15.24615434 76824
GREENCUBE               
1 53106U 22080B   23149.84195747 -.00000003  00000+0  00000+0 0  9993
2 53106  70.1621 326.0976 0008371 189.0727 170.9782  6.42557054 20576
RS29S (SXC3-2110 CYCLO*)
1 53373U 22096D   23155.58603640  .00028546  00000+0  75838-3 0  9996
2 53373  97.4154  61.7438 0002659 113.6135 246.5390 15.38223940 45751
RS32S (SXC3-212 MONITO*)
1 53374U 22096E   23155.54835937  .00026121  00000+0  71265-3 0  9996
2 53374  97.4133  61.6039 0003029 121.5536 238.6005 15.37417965 45745
RS34S (SXC3-218 KUZBAS*)
1 53375U 22096F   23155.55383588  .00020748  00000+0  60133-3 0  9999
2 53375  97.4159  61.3327 0002962 118.5506 241.6036 15.35576914 45723
RS23S (SXC3-21 UTMN)    
1 53376U 22096G   23155.58061989  .00021696  00000+0  61842-3 0  9992
2 53376  97.4155  61.4432 0002700 115.1066 245.0458 15.36090347 45731
RS28S (SXC3-214 MIET-A*)
1 53377U 22096H   23155.56032346  .00018418  00000+0  54057-3 0  9994
2 53377  97.4166  61.3306 0002841 119.9611 240.1915 15.35205723 45725
RS26S (KAI-1)           
1 53378U 22096J   23155.58763122  .00015687  00000+0  48130-3 0  9990
2 53378  97.4179  61.1552 0002847 116.6042 243.5492 15.33834793 45718
RS19S (SXC3-219 ISOI)   
1 53381U 22096M   23155.57983425  .00019911  00000+0  56938-3 0  9992
2 53381  97.4156  61.5922 0005657 101.5213 258.6666 15.35994229 45743
RS21S (CUBESX-HSE-2)    
1 53383U 22096P   23155.55612663  .00021033  00000+0  59338-3 0  9990
2 53383  97.4158  61.6346 0006191 102.2354 257.9583 15.36404832 45743
RS30S (SXC3-217 SIREN)  
1 53384U 22096Q   23155.57569265  .00017526  00000+0  51820-3 0  9992
2 53384  97.4170  61.4677 0006132  99.6337 260.5599 15.34967931 45736
RS20S (GEOSCAN-EDELVEIS)
1 53385U 22096R   23155.56516167  .00029982  00000+0  75745-3 0  9996
2 53385  97.4148  62.2120 0006472 100.9684 259.2290 15.39743394 45814
RS33S (SXC3-215 VIZARD) 
1 53386U 22096S   23155.57383822  .00037007  00000+0  83318-3 0  9990
2 53386  97.4145  62.8067 0007156 100.3522 259.8533 15.43175912 45842
CAS-5A (FO-118)         
1 54684U 22167C   23155.58391941  .00009386  00000+0  52288-3 0  9994
2 54684  97.5613 293.2514 0013607  24.2391 335.9478 15.13751855 26776
